NORAD_CAT_ID,OBJECT_NAME,OBJECT_TYPE,EPOCH,MEAN_MOTION,ECCENTRICITY,INCLINATION,RA_OF_ASC_NODE,ARG_OF_PERICENTER,MEAN_ANOMALY,BSTAR,MEAN_MOTION_DOT,MEAN_MOTION_DDOT,TLE_LINE0,TLE_LINE1,TLE_LINE2,SEMIMAJOR_AXIS,PERIOD,APOGEE,PERIGEE,DECAYED
55785.0,STARLINK-5818,PAYLOAD,2023-03-08 20:00:01,15.95015663,0.0033254,69.9998,141.603,164.9088,254.1586,-0.0024456,-0.01005456,0.00031482,0 STARLINK-5818,1 55785U 23028AW  23067.83334491 -.01005456  31482-3 -24456-2 0  9995,2 55785  69.9998 141.6030 0033254 164.9088 254.1586 15.95015663  1441,6666.408,90.281,310.441,266.104,0.0
55785.0,STARLINK-5818,PAYLOAD,2023-03-08 21:15:33,15.95262123,0.00352,69.9943,141.448,162.0949,198.1509,-0.00020885,-0.00089125,6.7199e-06,0 STARLINK-5818,1 55785U 23028AW  23067.88580754 -.00089125  67199-5 -20885-3 0  9998,2 55785  69.9943 141.4480 0035200 162.0949 198.1509 15.95262123  1454,6665.721,90.267,311.049,264.123,0.0
55785.0,STARLINK-5818,PAYLOAD,2023-03-09 20:00:01,15.93064188,0.0022624,69.9995,138.6896,170.0591,225.732,-0.002832,-0.01017609,0.00031549,0 STARLINK-5818,1 55785U 23028AW  23068.83334491 -.01017609  31549-3 -28320-2 0  9997,2 55785  69.9995 138.6896 0022624 170.0591 225.7320 15.93064188  1602,6671.851,90.392,308.81,278.621,0.0
55785.0,STARLINK-5818,PAYLOAD,2023-03-09 22:00:00,15.92881292,0.0022135,69.9999,138.4472,170.3769,343.1644,-0.0027519,-0.0097859,0.00029295,0 STARLINK-5818,1 55785U 23028AW  23068.91667824 -.00978590  29295-3 -27519-2 0  9993,2 55785  69.9999 138.4472 0022135 170.3769 343.1644 15.92881292  1618,6672.361,90.402,308.996,279.457,0.0
55785.0,STARLINK-5818,PAYLOAD,2023-03-10 06:00:00,15.92263077,0.0017155,69.9997,137.4779,175.6129,88.3963,-0.0030578,-0.01042381,0.00032716,0 STARLINK-5818,1 55785U 23028AW  23069.25001157 -.01042381  32716-3 -30578-2 0  9994,2 55785  69.9997 137.4779 0017155 175.6129  88.3963 15.92263077  1672,6674.088,90.437,307.403,284.504,0.0
55785.0,STARLINK-5818,PAYLOAD,2023-03-10 14:00:01,15.91596451,0.0014677,70.0,136.5101,181.4699,192.2453,-0.0031066,-0.01019433,0.00031189,0 STARLINK-5818,1 55785U 23028AW  23069.58334491 -.01019433  31189-3 -31066-2 0  9998,2 55785  70.0000 136.5101 0014677 181.4699 192.2453 15.91596451  1721,6675.952,90.475,307.615,288.019,0.0
55785.0,STARLINK-5818,PAYLOAD,2023-03-10 22:00:00,15.90935169,0.0011279,69.9997,135.5425,192.2162,290.4189,-0.0031599,-0.00998374,0.00029811,0 STARLINK-5818,1 55785U 23028AW  23069.91667824 -.00998374  29811-3 -31599-2 0  9993,2 55785  69.9997 135.5425 0011279 192.2162 290.4189 15.90935169  1775,6677.802,90.513,307.199,292.135,0.0
55785.0,STARLINK-5818,PAYLOAD,2023-03-11 06:00:00,15.90300829,0.0009471,69.9997,134.5758,207.4626,23.2995,-0.0033746,-0.01030324,0.00031403,0 STARLINK-5818,1 55785U 23028AW  23070.25001157 -.01030324  31403-3 -33746-2 0  9992,2 55785  69.9997 134.5758 0009471 207.4626  23.2995 15.90300829  1831,6679.577,90.549,307.769,295.116,0.0
55785.0,STARLINK-5818,PAYLOAD,2023-03-11 14:00:01,15.89643378,0.0008536,70.0001,133.6116,223.6765,114.5079,-0.0034825,-0.01027792,0.0003106,0 STARLINK-5818,1 55785U 23028AW  23070.58335648 -.01027792  31060-3 -34825-2 0  9996,2 55785  70.0001 133.6116 0008536 223.6765 114.5079 15.89643378  1882,6681.419,90.586,308.987,297.581,0.0
55785.0,STARLINK-5818,PAYLOAD,2023-03-11 22:00:00,15.88986032,0.0008582,69.9996,132.6466,250.3099,194.3796,-0.0035499,-0.01013871,0.00030094,0 STARLINK-5818,1 55785U 23028AW  23070.91667824 -.01013871  30094-3 -35499-2 0  9994,2 55785  69.9996 132.6466 0008582 250.3099 194.3796 15.88986032  1931,6683.262,90.624,310.862,299.391,0.0
55785.0,STARLINK-5818,PAYLOAD,2023-03-12 06:00:00,15.8831875,0.0009262,69.9999,131.6835,263.927,286.5567,-0.0035707,-0.0098722,0.00028462,0 STARLINK-5818,1 55785U 23028AW  23071.25001157 -.00987220  28462-3 -35707-2 0  9998,2 55785  69.9999 131.6835 0009262 263.9270 286.5567 15.88318750  1992,6685.133,90.662,313.19,300.806,0.0
55785.0,STARLINK-5818,PAYLOAD,2023-03-12 14:00:01,15.87664447,0.0008695,69.9999,130.7209,269.8686,25.621,-0.00367,-0.00893821,0.0,0 STARLINK-5818,1 55785U 23028AW  23071.58334491 -.00893821  00000-0 -36700-2 0  9996,2 55785  69.9999 130.7209 0008695 269.8686  25.6210 15.87664447  1300,6686.97,90.699,314.649,303.02,0.0
55785.0,STARLINK-5818,PAYLOAD,2023-03-12 22:00:00,15.87023653,0.0005923,69.9995,129.7592,268.6739,131.0358,-0.0038927,-0.00913849,0.0,0 STARLINK-5818,1 55785U 23028AW  23071.91667824 -.00913849  00000-0 -38927-2 0  9998,2 55785  69.9995 129.7592 0005923 268.6739 131.0358 15.87023653  1309,6688.77,90.736,314.596,306.673,0.0
55785.0,STARLINK-5818,PAYLOAD,2023-03-13 06:00:00,15.86362397,0.0003596,69.9999,128.7987,272.7854,230.3678,-0.0039488,-0.00897416,0.0,0 STARLINK-5818,1 55785U 23028AW  23072.25001157 -.00897416  00000-0 -39488-2 0  9991,2 55785  69.9999 128.7987 0003596 272.7854 230.3678 15.86362397  2149,6690.628,90.774,314.899,310.087,0.0
55785.0,STARLINK-5818,PAYLOAD,2023-03-13 14:00:01,15.85715446,0.0003621,70.0003,127.8391,263.379,342.4305,-0.0041105,-0.00904402,0.0,0 STARLINK-5818,1 55785U 23028AW  23072.58334491 -.00904402  00000-0 -41105-2 0  9990,2 55785  70.0003 127.8391 0003621 263.3790 342.4305 15.85715446  1306,6692.448,90.811,316.736,311.89,0.0
55785.0,STARLINK-5818,PAYLOAD,2023-03-13 22:00:00,15.85060824,0.0003679,70.0001,126.8797,270.5765,77.1113,-0.0042308,-0.00902054,0.0,0 STARLINK-5818,1 55785U 23028AW  23072.91667824 -.00902054  00000-0 -42308-2 0  9993,2 55785  70.0001 126.8797 0003679 270.5765  77.1113 15.85060824  2255,6694.29,90.848,318.618,313.693,0.0
55785.0,STARLINK-5818,PAYLOAD,2023-03-14 14:00:01,15.83755335,0.000352,70.0002,124.9653,266.9643,282.1295,-0.004489,-0.00899168,0.0,0 STARLINK-5818,1 55785U 23028AW  23073.58334491 -.00899168  00000-0 -44890-2 0  9997,2 55785  70.0002 124.9653 0003520 266.9643 282.1295 15.83755335  2362,6697.969,90.923,322.191,317.476,0.0
55785.0,STARLINK-5818,PAYLOAD,2023-03-14 22:00:00,15.83112909,0.0003589,70.0004,124.0087,273.3276,15.2926,-0.0047182,-0.00915018,0.0,0 STARLINK-5818,1 55785U 23028AW  23073.91667824 -.00915018  00000-0 -47182-2 0  9993,2 55785  70.0004 124.0087 0003589 273.3276  15.2926 15.83112909  1308,6699.781,90.96,324.05,319.241,0.0
55785.0,STARLINK-5818,PAYLOAD,2023-03-15 06:00:00,15.8245931,0.0003664,69.9999,123.0539,274.6817,112.6863,-0.0048548,-0.00913141,0.0,0 STARLINK-5818,1 55785U 23028AW  23074.25001157 -.00913141  00000-0 -48548-2 0  9994,2 55785  69.9999 123.0539 0003664 274.6817 112.6863 15.82459310  2467,6701.625,90.998,325.946,321.035,0.0
55785.0,STARLINK-5818,PAYLOAD,2023-03-15 14:00:01,15.81798999,0.0003548,70.0,122.0994,266.5017,218.8347,-0.0049294,-0.00900193,0.0,0 STARLINK-5818,1 55785U 23028AW  23074.58334491 -.00900193  00000-0 -49294-2 0  9992,2 55785  70.0000 122.0994 0003548 266.5017 218.8347 15.81798999  1306,6703.49,91.036,327.734,322.977,0.0
55785.0,STARLINK-5818,PAYLOAD,2023-03-15 22:00:00,15.81153454,0.0003567,70.0,121.146,261.7386,320.7779,-0.0051435,-0.00910389,0.0,0 STARLINK-5818,1 55785U 23028AW  23074.91667824 -.00910389  00000-0 -51435-2 0  9996,2 55785  70.0000 121.1460 0003567 261.7386 320.7779 15.81153454  1304,6705.315,91.073,329.571,324.788,0.0
55785.0,STARLINK-5818,PAYLOAD,2023-03-16 06:00:00,15.80496121,0.000363,69.9999,120.1937,271.9442,46.9747,-0.0052535,-0.0090283,0.0,0 STARLINK-5818,1 55785U 23028AW  23075.25001157 -.00902830  00000-0 -52535-2 0  9999,2 55785  69.9999 120.1937 0003630 271.9442  46.9747 15.80496121  2621,6707.174,91.111,331.473,326.604,0.0
55785.0,STARLINK-5818,PAYLOAD,2023-03-16 14:00:01,15.79844418,0.0003622,70.0001,119.2424,270.3542,144.1825,-0.0054107,-0.00902433,0.0,0 STARLINK-5818,1 55785U 23028AW  23075.58334491 -.00902433  00000-0 -54107-2 0  9991,2 55785  70.0001 119.2424 0003622 270.3542 144.1825 15.79844418  1309,6709.018,91.148,333.313,328.453,0.0
55785.0,STARLINK-5818,PAYLOAD,2023-03-16 22:00:00,15.791919,0.0003494,70.0002,118.2916,267.002,242.3712,-0.0055753,-0.00902499,0.0,0 STARLINK-5818,1 55785U 23028AW  23075.91667824 -.00902499  00000-0 -55753-2 0  9997,2 55785  70.0002 118.2916 0003494 267.0020 242.3712 15.79191900  1303,6710.866,91.186,335.076,330.386,0.0
55785.0,STARLINK-5818,PAYLOAD,2023-03-17 06:00:00,15.785414,0.000353,70.0004,117.3424,274.9648,328.4615,-0.0057649,-0.00905713,0.0,0 STARLINK-5818,1 55785U 23028AW  23076.25001157 -.00905713  00000-0 -57649-2 0  9994,2 55785  70.0004 117.3424 0003530 274.9648 328.4615 15.78541400  2787,6712.71,91.223,336.944,332.205,0.0
55785.0,STARLINK-5818,PAYLOAD,2023-03-17 14:00:01,15.77889649,0.0003659,69.9999,116.3936,270.8036,65.8929,-0.0059258,-0.00904247,0.0,0 STARLINK-5818,1 55785U 23028AW  23076.58334491 -.00904247  00000-0 -59258-2 0  9999,2 55785  69.9999 116.3936 0003659 270.8036  65.8929 15.77889649  1308,6714.558,91.261,338.88,333.966,0.0
55785.0,STARLINK-5818,PAYLOAD,2023-03-17 22:00:00,15.77231836,0.0003606,70.0,115.4457,269.4002,159.7886,-0.0060522,-0.00897405,0.0,0 STARLINK-5818,1 55785U 23028AW  23076.91667824 -.00897405  00000-0 -60522-2 0  9998,2 55785  70.0000 115.4457 0003606 269.4002 159.7886 15.77231836  1305,6716.425,91.299,340.712,335.868,0.0
55785.0,STARLINK-5818,PAYLOAD,2023-03-18 06:00:00,15.7654833,0.0003389,69.9999,114.4985,270.8519,250.0578,-0.005907,-0.00853918,0.0,0 STARLINK-5818,1 55785U 23028AW  23077.25001157 -.00853918  00000-0 -59070-2 0  9994,2 55785  69.9999 114.4985 0003389 270.8519 250.0578 15.76548330  2933,6718.366,91.339,342.508,337.954,0.0
55785.0,STARLINK-5818,PAYLOAD,2023-03-18 22:00:00,15.75276398,0.0003697,70.0002,112.6074,276.623,65.3386,-0.0066111,-0.00898886,0.0,0 STARLINK-5818,1 55785U 23028AW  23077.91667824 -.00898886  00000-0 -66111-2 0  9993,2 55785  70.0002 112.6074 0003697 276.6230  65.3386 15.75276398  3044,6721.982,91.413,346.332,341.362,0.0
